{"type":"FeatureCollection","name":"india-boundary","description":"India's boundary as depicted by the Survey of India: through Jammu & Kashmir, Ladakh and Aksai Chin in the west, and along Arunachal Pradesh in the east. Each feature's properties.source records whether OpenStreetMap independently corroborates it ('osm') or not ('hand').","license":"ODbL-1.0","attribution":"India boundary: © OpenStreetMap contributors (ODbL), partly hand-carried","source_counts":{"osm":111,"hand":5},"homepage":"https://github.com/lux-in-tenebris-lucet/leaflet-india-boundary","features":[{"type":"Feature","geometry":{"type":"LineString","coordinates":[[73.7541731,32.9466018],[73.8076029,32.9423743],[73.8313682,32.9287784]]},"properties":{"source":"osm"}},{"type":"Feature","geometry":{"type":"LineString","coordinates":[[73.6713786,33.2047351],[73.6755463,33.1954493],[73.6629287,33.1586631],[73.6375765,33.1539475],[73.6300569,33.1355147],[73.6355715,33.1041905],[73.6553984,33.0780875],[73.6997514,33.0736643],[73.7346844,33.064026]]},"properties":{"source":"osm"}},{"type":"Feature","geometry":{"type":"LineString","coordinates":[[73.7511423,33.0500452],[73.7452654,33.0346563],[73.7608652,33.0167016],[73.7602995,32.9945073],[73.784266,32.9666077],[73.7541731,32.9466018]]},"properties":{"source":"osm"}},{"type":"Feature","geometry":{"type":"LineString","coordinates":[[73.7346844,33.064026],[73.7511423,33.0500452]]},"properties":{"source":"osm"}},{"type":"Feature","geometry":{"type":"LineString","coordinates":[[74.126488,35.124629],[74.080276,35.151099],[74.044984,35.141381],[73.994706,35.176384],[73.955261,35.183326],[73.930268,35.20305],[73.891099,35.211663],[73.849716,35.207772],[73.804703,35.236106],[73.781098,35.240546],[73.730545,35.21971],[73.721374,35.229431],[73.699706,35.297219],[73.697206,35.362769],[73.709426,35.413605],[73.721923,35.42749],[73.764436,35.449433],[73.80304,35.503052],[73.780273,35.522491],[73.741653,35.522218],[73.726379,35.529716],[73.673035,35.532768],[73.570832,35.555267],[73.534715,35.553321],[73.493043,35.568603],[73.414429,35.573325],[73.347488,35.599435],[73.295823,35.607498],[73.23027,35.643883],[73.2061,35.665268],[73.157212,35.69027],[73.126084,35.722763],[73.113038,35.751107],[73.114989,35.79222],[73.124696,35.82888],[73.114989,35.847772],[73.092483,35.860275],[73.058868,35.861107],[73.008332,35.840827],[72.976379,35.833878],[72.878312,35.843605],[72.825272,35.856102],[72.800537,35.854714],[72.764435,35.838883],[72.688583,35.818603],[72.670822,35.81833],[72.618867,35.837769],[72.570267,35.848601],[72.549148,35.881104],[72.5107111,35.8960973]]},"properties":{"source":"osm"}},{"type":"Feature","geometry":{"type":"LineString","coordinates":[[72.7698226,36.3078837],[72.8053899,36.3432476],[72.8558265,36.373232],[72.8756919,36.3906618],[72.8671272,36.4113425],[72.8785468,36.4385255],[72.9047167,36.4593849],[72.9264853,36.4530703],[72.9474213,36.4603416],[72.9728775,36.4545054],[72.9862003,36.4680906],[72.9747807,36.4946799],[72.9798958,36.5123692],[73.0511493,36.5322529],[73.0586435,36.5678969],[73.0764866,36.5713362],[73.0802931,36.5939744],[73.0969467,36.6067712],[73.0760108,36.6213798],[73.0689925,36.6792141],[73.1086042,36.6856057],[73.1568996,36.7084011],[73.1739101,36.7265182],[73.2377885,36.707066],[73.3082094,36.7030605],[73.3707793,36.7334778],[73.4151493,36.7326198],[73.4435793,36.7211788],[73.4579728,36.7360517],[73.5000826,36.7134552],[73.5631283,36.7162206],[73.579544,36.7243253],[73.5948891,36.6948582],[73.6398538,36.6981011],[73.6900524,36.6907567],[73.7090851,36.713646],[73.7990145,36.6997225],[73.8241139,36.7115481],[73.8619413,36.6994363],[73.8825204,36.7033466],[73.8890629,36.7282343],[73.8818066,36.7692193],[73.8482616,36.7917994],[73.8151923,36.7991341],[73.7955648,36.8196105],[73.7641609,36.8146586],[73.7478642,36.8272282],[73.7050407,36.8351307],[73.654106,36.908791]]},"properties":{"source":"osm"}},{"type":"Feature","geometry":{"type":"LineString","coordinates":[[73.5862409,33.4257503],[73.590003,33.412472],[73.5663406,33.3718378],[73.5724287,33.3425105],[73.5956654,33.3240186],[73.6103332,33.2882871]]},"properties":{"source":"osm"}},{"type":"Feature","geometry":{"type":"LineString","coordinates":[[73.6103332,33.2882871],[73.6155971,33.2479462]]},"properties":{"source":"osm"}},{"type":"Feature","geometry":{"type":"LineString","coordinates":[[73.6155971,33.2479462],[73.6366118,33.210103],[73.6713786,33.2047351]]},"properties":{"source":"osm"}},{"type":"Feature","geometry":{"type":"LineString","coordinates":[[73.5733914,33.6752806],[73.5670237,33.6668826],[73.5839324,33.6174785],[73.6054284,33.5888159],[73.629182,33.5695089],[73.6225731,33.5438847],[73.6387736,33.5337437],[73.6103298,33.5117724],[73.6040033,33.4938069]]},"properties":{"source":"osm"}},{"type":"Feature","geometry":{"type":"LineString","coordinates":[[73.6212449,33.4758396],[73.6314493,33.4486554],[73.595894,33.4380221],[73.5862409,33.4257503]]},"properties":{"source":"osm"}},{"type":"Feature","geometry":{"type":"LineString","coordinates":[[73.6040033,33.4938069],[73.6212449,33.4758396]]},"properties":{"source":"osm"}},{"type":"Feature","geometry":{"type":"LineString","coordinates":[[73.575941,33.9109027],[73.5939142,33.8872066],[73.5596079,33.7813447],[73.5985897,33.747968]]},"properties":{"source":"osm"}},{"type":"Feature","geometry":{"type":"LineString","coordinates":[[73.5986353,33.7452151],[73.6067547,33.7259531],[73.6010127,33.7014501],[73.5733914,33.6752806]]},"properties":{"source":"osm"}},{"type":"Feature","geometry":{"type":"LineString","coordinates":[[73.5342636,33.9691291],[73.5461669,33.9407682],[73.575941,33.9109027]]},"properties":{"source":"osm"}},{"type":"Feature","geometry":{"type":"LineString","coordinates":[[73.5136885,34.0013148],[73.5342636,33.9691291]]},"properties":{"source":"osm"}},{"type":"Feature","geometry":{"type":"LineString","coordinates":[[73.610535,34.570831],[73.641098,34.566941],[73.658034,34.595824],[73.674423,34.645828],[73.661102,34.684159],[73.67276,34.703324],[73.709153,34.732208],[73.720535,34.767213],[73.760269,34.799438],[73.799423,34.803604],[73.833879,34.826942],[73.89833,34.824716],[73.937194,34.849433],[73.986373,34.870544],[74.00444,34.905265],[74.05165,34.955552],[74.055816,34.996102],[74.085265,35.018326],[74.086655,35.029159],[74.062196,35.060547],[74.060256,35.074714],[74.126488,35.124629]]},"properties":{"source":"osm"}},{"type":"Feature","geometry":{"type":"LineString","coordinates":[[73.3910239,34.376181],[73.398331,34.38234],[73.406937,34.424438],[73.432206,34.479158],[73.442749,34.554994],[73.464707,34.571937],[73.526093,34.57361],[73.581665,34.587768],[73.610535,34.570831]]},"properties":{"source":"osm"}},{"type":"Feature","geometry":{"type":"LineString","coordinates":[[73.3910239,34.376181],[73.4029651,34.3530396],[73.4433592,34.3212751],[73.4594363,34.2883684],[73.4856852,34.2727067],[73.473291,34.260812],[73.4800625,34.233512],[73.4968165,34.2088658],[73.4903309,34.1830069],[73.4908513,34.1264472],[73.5004697,34.0946105]]},"properties":{"source":"osm"}},{"type":"Feature","geometry":{"type":"LineString","coordinates":[[73.5136885,34.0013148],[73.4986167,34.0716161],[73.5004697,34.0946105]]},"properties":{"source":"osm"}},{"type":"Feature","geometry":{"type":"LineString","coordinates":[[72.5107111,35.8960973],[72.5088281,35.9160773],[72.523606,35.926942],[72.566941,36.007507],[72.559402,36.033341],[72.521912,36.072228],[72.522475,36.106948],[72.544692,36.15499],[72.540253,36.202476],[72.567215,36.248298],[72.614151,36.267174],[72.663315,36.2594],[72.686357,36.273277],[72.7070145,36.27311],[72.735088,36.2990642],[72.7698226,36.3078837]]},"properties":{"source":"osm"}},{"type":"Feature","geometry":{"type":"LineString","coordinates":[[73.8313682,32.9287784],[73.8924503,32.9246253],[73.9303692,32.933448],[73.9871521,32.9323311],[74.0097625,32.9426328],[74.0799088,32.9101082],[74.1349048,32.8991909],[74.183487,32.865696],[74.2369804,32.8475213],[74.253395,32.846275],[74.314689,32.8204231],[74.3275444,32.7829551],[74.3564689,32.7752404],[74.378952,32.801624],[74.397241,32.8009687],[74.408611,32.771667],[74.4638194,32.7766375]]},"properties":{"source":"osm"}},{"type":"Feature","geometry":{"type":"LineString","coordinates":[[79.389758,32.918015],[79.40078,32.940565],[79.379557,32.945744],[79.334741,32.997603],[79.341835,33.014705],[79.328358,33.034464],[79.340579,33.057364],[79.359082,33.063018],[79.373109,33.118749],[79.400529,33.148002],[79.395886,33.169414]]},"properties":{"source":"osm"}},{"type":"Feature","geometry":{"type":"LineString","coordinates":[[79.4148053,32.5422657],[79.46295,32.606116],[79.502924,32.643717]]},"properties":{"source":"osm"}},{"type":"Feature","geometry":{"type":"LineString","coordinates":[[79.502924,32.643717],[79.524636,32.651546],[79.548375,32.676552],[79.540843,32.703226],[79.561282,32.714367],[79.543609,32.731088],[79.557271,32.759179]]},"properties":{"source":"osm"}},{"type":"Feature","geometry":{"type":"LineString","coordinates":[[79.557271,32.759179],[79.5447607,32.7730679],[79.505323,32.783541],[79.4808,32.800677]]},"properties":{"source":"osm"}},{"type":"Feature","geometry":{"type":"LineString","coordinates":[[79.4808,32.800677],[79.460914,32.833437],[79.470847,32.84268],[79.472568,32.876263],[79.446354,32.89098],[79.421025,32.895212],[79.389758,32.918015]]},"properties":{"source":"osm"}},{"type":"Feature","geometry":{"type":"LineString","coordinates":[[75.9980541,36.484496],[76.0258665,36.4860462],[76.0692272,36.4775464],[76.1251036,36.4374592],[76.1731349,36.390302],[76.1986356,36.3874455],[76.2547611,36.3477937],[76.2973903,36.3504645],[76.3241353,36.361788],[76.352408,36.3598739],[76.4011526,36.3215115],[76.432004,36.308161],[76.4500366,36.2694054],[76.4324252,36.252071],[76.4560238,36.2413969],[76.4817068,36.2114093],[76.5448627,36.192757],[76.5629732,36.1730653],[76.6011647,36.1655489],[76.6372798,36.1849242],[76.6647957,36.1580606],[76.6972733,36.1358971],[76.7168607,36.0872442],[76.7260034,36.0784771],[76.8007285,36.0489926],[76.8049865,36.0168814],[76.7682293,36.0080173],[76.7543408,35.9826725],[76.7227707,35.9534305],[76.7856816,35.8899445],[76.8037794,35.8504117],[76.8653581,35.8264735],[76.8949429,35.7997362],[76.9352244,35.7840569],[77.004433,35.7750916],[77.033321,35.7764174],[77.081515,35.7977912],[77.1195362,35.796414],[77.1416322,35.7714596],[77.1658828,35.7586352],[77.1753165,35.7317285],[77.2221123,35.727116],[77.2245821,35.714978],[77.2854571,35.7110688],[77.3165673,35.7000154],[77.327599,35.7190901],[77.3584377,35.71772],[77.3832012,35.6931332],[77.4040978,35.6611799],[77.4269413,35.6593261],[77.4379117,35.6410899],[77.4271369,35.6105445],[77.4568505,35.5936084],[77.4655989,35.5733167],[77.4606132,35.5477076],[77.4836923,35.5363824],[77.4724145,35.5211137],[77.4402307,35.518059],[77.406699,35.5298165],[77.3783943,35.5503481],[77.3453946,35.5468226],[77.3227022,35.5367978]]},"properties":{"source":"osm"}},{"type":"Feature","geometry":{"type":"LineString","coordinates":[[75.9526061,36.5372951],[75.9874928,36.502322],[75.9980541,36.484496]]},"properties":{"source":"osm"}},{"type":"Feature","geometry":{"type":"LineString","coordinates":[[78.9054981,34.0051852],[78.9354793,34.0204138],[78.9952038,34.036832],[79.0189984,34.0161307],[79.0520729,34.0025678],[79.1087041,33.9901946],[79.1472513,33.9989986],[79.171046,34.0218414],[79.1938888,34.0249347],[79.2252977,34.010658],[79.2488543,34.0239829],[79.2969194,34.0094682],[79.3161931,34.014941],[79.3674407,33.9946664],[79.3906702,33.997095],[79.4101818,34.0101821],[79.4044711,34.0273142],[79.4294554,34.0596749],[79.4161304,34.1001257],[79.4382594,34.116544],[79.4701442,34.1160681],[79.4913214,34.134152],[79.497508,34.1741269],[79.4905886,34.1908996],[79.5586601,34.209343],[79.5898311,34.2409898],[79.6073639,34.2382215],[79.6100777,34.2841617],[79.6013549,34.3084887],[79.5732938,34.3214156],[79.5590171,34.3716222],[79.5347804,34.4007544],[79.5305915,34.4426436],[79.5091611,34.4511975]]},"properties":{"source":"osm"}},{"type":"Feature","geometry":{"type":"LineString","coordinates":[[79.0851428,33.6195384],[79.0825254,33.6492817],[79.0557405,33.6653971],[79.0220871,33.674266],[79.0079801,33.6924626],[79.0096535,33.7097317],[79.0282783,33.7536762],[79.0004386,33.7734257],[78.9933002,33.7946029],[78.9652226,33.8212529],[78.9371449,33.9126242],[78.8871763,33.9725866],[78.9054981,34.0051852]]},"properties":{"source":"osm"}},{"type":"Feature","geometry":{"type":"LineString","coordinates":[[79.395886,33.169414],[79.412751,33.176773],[79.38518,33.201913],[79.362314,33.19727],[79.33569,33.204029],[79.323878,33.190291],[79.255818,33.215399],[79.238447,33.233117],[79.216971,33.237886],[79.204401,33.20984],[79.182293,33.212241],[79.151971,33.181869]]},"properties":{"source":"osm"}},{"type":"Feature","geometry":{"type":"LineString","coordinates":[[78.9366127,33.3869223],[78.9273846,33.440603],[78.9314297,33.4867645],[78.9097505,33.5654311],[78.8883614,33.572663],[78.9077147,33.621128]]},"properties":{"source":"osm"}},{"type":"Feature","geometry":{"type":"LineString","coordinates":[[78.9077147,33.621128],[78.9499895,33.6176348],[79.0035273,33.6074032],[79.0251804,33.6190625],[79.0851428,33.6195384]]},"properties":{"source":"osm"}},{"type":"Feature","geometry":{"type":"LineString","coordinates":[[79.5091611,34.4511975],[79.5381633,34.4788814],[79.5631331,34.457944],[79.604798,34.4653105],[79.6233578,34.449844],[79.6735645,34.454603],[79.6849859,34.4767319],[79.7033077,34.4862498],[79.7216296,34.4717351],[79.7526815,34.4776837],[79.7655306,34.4705453],[79.7967052,34.4822221]]},"properties":{"source":"osm"}},{"type":"Feature","geometry":{"type":"LineString","coordinates":[[79.9079287,34.6946378],[79.9323937,34.6918877],[79.9515387,34.6737465],[79.9721896,34.6997035],[80.0152838,34.6936803],[80.0741464,34.7058061],[80.0792055,34.733439],[80.0669116,34.7622563],[80.0989921,34.7745363],[80.1204618,34.837705],[80.1674635,34.8800732],[80.1969966,34.8871385],[80.2060403,34.9114433],[80.1862573,34.9464874],[80.1975165,34.96062],[80.226635,34.9724685],[80.2335754,34.9895891],[80.2173653,35.0025938],[80.1936721,35.1184343]]},"properties":{"source":"osm"}},{"type":"Feature","geometry":{"type":"LineString","coordinates":[[79.7967052,34.4822221],[79.8107404,34.5402635],[79.7882498,34.5640188],[79.8018136,34.5892643],[79.787018,34.605969],[79.7865473,34.6273539],[79.8297132,34.6460687],[79.8452731,34.6690141],[79.8984776,34.69619],[79.9079287,34.6946378]]},"properties":{"source":"osm"}},{"type":"Feature","geometry":{"type":"LineString","coordinates":[[78.1571897,35.5509472],[78.1297226,35.5455394],[78.0766144,35.5599648],[78.0482686,35.5782463],[78.0224262,35.5642328],[77.9978907,35.5603415],[77.9672604,35.5681972],[77.9378503,35.559317],[77.9283455,35.5412573],[77.9338061,35.5224453],[77.9240974,35.4972106]]},"properties":{"source":"osm"}},{"type":"Feature","geometry":{"type":"LineString","coordinates":[[78.2510871,35.7282772],[78.2401006,35.7062087],[78.2093646,35.6740077],[78.1817008,35.6673563],[78.1960618,35.6496696],[78.1617348,35.5929304],[78.1571897,35.5509472]]},"properties":{"source":"osm"}},{"type":"Feature","geometry":{"type":"LineString","coordinates":[[78.8035393,35.8770789],[78.8002418,35.8698246],[78.7455044,35.8594926],[78.7217629,35.8630099],[78.6946747,35.8496793],[78.676115,35.8530106],[78.6566034,35.8220776],[78.6075865,35.8151771],[78.5767354,35.7972152],[78.5587882,35.7733295],[78.5225857,35.7627436],[78.5053525,35.771209],[78.462723,35.7644065],[78.4405012,35.7807327],[78.4211347,35.767396],[78.4087559,35.7306959],[78.3423159,35.7199],[78.3195253,35.7210563]]},"properties":{"source":"hand"}},{"type":"Feature","geometry":{"type":"LineString","coordinates":[[78.3195253,35.7210563],[78.2510871,35.7282772]]},"properties":{"source":"osm"}},{"type":"Feature","geometry":{"type":"LineString","coordinates":[[78.8558586,35.9742433],[78.836074,35.9419285],[78.8277205,35.9085145],[78.8035393,35.8770789]]},"properties":{"source":"osm"}},{"type":"Feature","geometry":{"type":"LineString","coordinates":[[79.7042776,35.6390451],[79.7004922,35.6594497],[79.676768,35.6778252],[79.6786294,35.7002396],[79.6645914,35.7185434],[79.6451242,35.7238949],[79.6424872,35.7501872],[79.6295668,35.7782117],[79.5925417,35.7888788],[79.56427,35.8297913],[79.5883037,35.877887],[79.5664131,35.8982187]]},"properties":{"source":"osm"}},{"type":"Feature","geometry":{"type":"LineString","coordinates":[[80.3664698,35.5251075],[80.3294639,35.534929],[80.3021734,35.5340292],[80.2974544,35.5560939],[80.2238609,35.5550776],[80.2054132,35.5751497],[80.1713024,35.557166],[80.1659653,35.5466079],[80.1825866,35.5088458],[80.1419485,35.4979942],[80.1271319,35.4783793],[80.1099998,35.4783793],[80.0884656,35.4381664],[80.0722853,35.4231758]]},"properties":{"source":"osm"}},{"type":"Feature","geometry":{"type":"LineString","coordinates":[[80.1936721,35.1184343],[80.2374457,35.1543721],[80.2223395,35.1780178],[80.2468013,35.1856643],[80.2563285,35.2041814],[80.2852472,35.211262]]},"properties":{"source":"osm"}},{"type":"Feature","geometry":{"type":"LineString","coordinates":[[80.2852472,35.211262],[80.2942892,35.2678932]]},"properties":{"source":"osm"}},{"type":"Feature","geometry":{"type":"LineString","coordinates":[[80.0722853,35.4231758],[80.0349278,35.4386423],[80.0168439,35.4657682],[80.0068501,35.4962253],[79.994001,35.5097882],[79.9645318,35.5714719],[80.0010814,35.5924701],[79.9545853,35.6162313],[79.957585,35.6328089]]},"properties":{"source":"osm"}},{"type":"Feature","geometry":{"type":"LineString","coordinates":[[79.957585,35.6328089],[79.9245878,35.620652],[79.9209565,35.604706],[79.8675304,35.5974051],[79.8607658,35.5766603],[79.8367138,35.5862811],[79.8392693,35.6016142],[79.816842,35.6269739],[79.7714728,35.6256662],[79.7340147,35.642769],[79.7042776,35.6390451]]},"properties":{"source":"osm"}},{"type":"Feature","geometry":{"type":"LineString","coordinates":[[80.2925906,35.3604184],[80.3467536,35.3910228],[80.3769176,35.3923438],[80.4119255,35.4260306],[80.4208426,35.4430942]]},"properties":{"source":"osm"}},{"type":"Feature","geometry":{"type":"LineString","coordinates":[[80.2942892,35.2678932],[80.2662115,35.2964467],[80.2925906,35.3604184]]},"properties":{"source":"osm"}},{"type":"Feature","geometry":{"type":"LineString","coordinates":[[80.4208426,35.4430942],[80.4115952,35.4771112],[80.3894676,35.4876797],[80.3660968,35.5134914],[80.3664698,35.5251075]]},"properties":{"source":"osm"}},{"type":"Feature","geometry":{"type":"LineString","coordinates":[[79.5664131,35.8982187],[79.5578387,35.8803554],[79.5253079,35.8657997],[79.5013308,35.8465243],[79.4717125,35.8586372],[79.4522501,35.8827864],[79.468368,35.9003393],[79.4563342,35.9240926],[79.4396228,35.9341975],[79.4369169,35.9722297],[79.3920214,35.9762218],[79.3434392,35.9878727],[79.3383831,35.9634717],[79.3131028,35.9568768],[79.2695767,35.9274197]]},"properties":{"source":"osm"}},{"type":"Feature","geometry":{"type":"LineString","coordinates":[[79.2695767,35.9274197],[79.1862615,35.9331353],[79.1644984,35.9447862],[79.077666,35.9469845],[79.0572219,35.9414888],[79.0257863,35.9151093],[79.0114975,35.9311568],[78.9635747,35.9370922],[78.9547816,35.9485233],[78.9264237,35.9452259],[78.8558586,35.9742433]]},"properties":{"source":"osm"}},{"type":"Feature","geometry":{"type":"LineString","coordinates":[[73.841253,36.925945],[73.827306,36.899294],[73.799916,36.890602],[73.7521,36.912051],[73.734868,36.903018],[73.69158,36.915797],[73.654106,36.908791]]},"properties":{"source":"osm"}},{"type":"Feature","geometry":{"type":"LineString","coordinates":[[74.9999254,36.9979211],[74.9189999,36.978957],[74.931881,36.945459],[74.9060629,36.92974],[74.8837271,36.936386],[74.8801829,36.960527],[74.8402621,37.019909],[74.836669,37.058713],[74.805633,37.053186],[74.794419,37.031096],[74.7741229,37.022023],[74.739209,37.021655],[74.717482,37.037366],[74.7214841,37.05441],[74.7019699,37.082359],[74.667951,37.082416],[74.622406,37.059823],[74.624373,37.047285],[74.5801222,37.030568],[74.564626,37.030852]]},"properties":{"source":"hand"}},{"type":"Feature","geometry":{"type":"LineString","coordinates":[[74.065299,36.841091],[74.048114,36.826411],[74.003385,36.836827],[73.99436,36.830229],[73.95743,36.842518],[73.932234,36.87474],[73.914651,36.869367],[73.892046,36.879803]]},"properties":{"source":"osm"}},{"type":"Feature","geometry":{"type":"LineString","coordinates":[[73.892046,36.879803],[73.90677,36.900804],[73.890465,36.912521],[73.841253,36.925945]]},"properties":{"source":"osm"}},{"type":"Feature","geometry":{"type":"LineString","coordinates":[[74.153365,36.898165],[74.129893,36.8637],[74.12079,36.83822],[74.065299,36.841091]]},"properties":{"source":"osm"}},{"type":"Feature","geometry":{"type":"LineString","coordinates":[[74.315913,36.938305],[74.309291,36.918906],[74.237211,36.894872],[74.223558,36.896831]]},"properties":{"source":"osm"}},{"type":"Feature","geometry":{"type":"LineString","coordinates":[[74.223558,36.896831],[74.180747,36.916499],[74.153365,36.898165]]},"properties":{"source":"osm"}},{"type":"Feature","geometry":{"type":"LineString","coordinates":[[74.534055,36.957221],[74.506271,36.966017],[74.491484,36.988002],[74.426558,37.01115]]},"properties":{"source":"osm"}},{"type":"Feature","geometry":{"type":"LineString","coordinates":[[74.395311,36.973441],[74.388036,36.964049],[74.350169,36.962302],[74.315913,36.938305]]},"properties":{"source":"osm"}},{"type":"Feature","geometry":{"type":"LineString","coordinates":[[74.426558,37.01115],[74.413732,36.975273],[74.395311,36.973441]]},"properties":{"source":"osm"}},{"type":"Feature","geometry":{"type":"LineString","coordinates":[[74.564626,37.030852],[74.51893,37.017367],[74.543524,36.967085],[74.534055,36.957221]]},"properties":{"source":"osm"}},{"type":"Feature","geometry":{"type":"LineString","coordinates":[[75.19221,36.974688],[75.2162911,36.971826],[75.233421,36.959055],[75.285346,36.974495],[75.315789,36.969826],[75.327187,36.958537],[75.3589271,36.956816],[75.3753049,36.946841],[75.3995239,36.955057],[75.4058632,36.936584],[75.387195,36.925916],[75.385606,36.903406],[75.4202048,36.889483],[75.4318285,36.8301725],[75.419898,36.7994229],[75.4195976,36.7733706],[75.4435014,36.7467937],[75.4514837,36.7246105],[75.4694223,36.7159075],[75.4992641,36.739151],[75.5324539,36.721379],[75.5339051,36.771441],[75.5736412,36.766664],[75.6373748,36.770191],[75.673418,36.764956],[75.6981101,36.74689],[75.7195099,36.752095],[75.7658138,36.724879]]},"properties":{"source":"hand"}},{"type":"Feature","geometry":{"type":"LineString","coordinates":[[75.19221,36.974688],[75.1581259,36.992952],[75.168135,37.009677],[75.1376891,37.026454],[75.1254728,37.012544],[75.0480739,37.00475],[75.0292459,37.01624],[74.9999254,36.9979211]]},"properties":{"source":"hand"}},{"type":"Feature","geometry":{"type":"LineString","coordinates":[[75.7658138,36.724879],[75.803792,36.710235],[75.8487161,36.673665],[75.864847,36.669735],[75.888166,36.639054],[75.911314,36.629027],[75.9406328,36.5928932],[75.9257841,36.5730437],[75.9526061,36.5372951]]},"properties":{"source":"hand"}},{"type":"Feature","geometry":{"type":"LineString","coordinates":[[93.27517,28.55857],[93.26034,28.55085],[93.25051,28.54931],[93.20925,28.50354],[93.18905,28.48274],[93.18184,28.47855],[93.1675,28.45371],[93.15919,28.45265],[93.15478,28.4491],[93.15639,28.44707],[93.14977,28.447],[93.15751,28.44071],[93.17043,28.43604],[93.17035,28.42832]]},"properties":{"source":"osm"}},{"type":"Feature","geometry":{"type":"LineString","coordinates":[[93.17035,28.42832],[93.16647,28.4185],[93.1683,28.41529],[93.1634,28.40027],[93.15634,28.39435],[93.15063,28.38294],[93.14578,28.37924],[93.14819,28.37411],[93.15176,28.37159],[93.14861,28.36657]]},"properties":{"source":"osm"}},{"type":"Feature","geometry":{"type":"LineString","coordinates":[[93.14861,28.36657],[93.13934,28.3636],[93.13329,28.35684],[93.11775,28.34607],[93.1081,28.34159],[93.10293,28.34209],[93.10093,28.34085],[93.10008,28.33726],[93.09546,28.33538],[93.08591,28.32596],[93.08112,28.3275],[93.0789,28.32654],[93.07543,28.32357],[93.06598,28.30635]]},"properties":{"source":"osm"}},{"type":"Feature","geometry":{"type":"LineString","coordinates":[[93.06598,28.30635],[93.06104,28.30485],[93.05541,28.31001]]},"properties":{"source":"osm"}},{"type":"Feature","geometry":{"type":"LineString","coordinates":[[93.05541,28.31001],[93.05072,28.31199],[93.04446,28.30661],[93.03214,28.30411],[93.02737,28.29933],[93.00598,28.29716],[93.00281,28.28801],[92.99189,28.27116],[92.97158,28.26934],[92.95132,28.26012],[92.94498,28.25954],[92.93751,28.25091],[92.93255,28.24865],[92.93274,28.24096],[92.92764,28.23074],[92.92889,28.22374],[92.93673,28.21862],[92.93737,28.21643],[92.93316,28.20942],[92.93293,28.20536]]},"properties":{"source":"osm"}},{"type":"Feature","geometry":{"type":"LineString","coordinates":[[92.93293,28.20536],[92.92666,28.20562],[92.92272,28.20056],[92.91626,28.19882],[92.91092,28.20119],[92.90552,28.20158],[92.90284,28.20027],[92.88276,28.20091],[92.8728,28.19518],[92.8678,28.18939],[92.84994,28.18426],[92.84518,28.18055],[92.84138,28.18162],[92.83253,28.17377],[92.82536,28.17487]]},"properties":{"source":"osm"}},{"type":"Feature","geometry":{"type":"LineString","coordinates":[[92.82536,28.17487],[92.7934,28.18658],[92.78381,28.18605],[92.77846,28.18504],[92.77237,28.18056],[92.77068,28.17853],[92.77416,28.1705],[92.77103,28.16592],[92.76285,28.16131],[92.75083,28.16248],[92.74639,28.16147],[92.73908,28.15361],[92.73199,28.15577],[92.73081,28.15934],[92.72336,28.16085],[92.71579,28.16792],[92.70989,28.16507],[92.7081,28.15958],[92.70208,28.15423],[92.6974,28.15355],[92.69472,28.15083],[92.68682,28.14969],[92.67766,28.15131],[92.67577,28.14701],[92.67629,28.14209],[92.67268,28.13972],[92.66903,28.13264],[92.6683,28.11643],[92.6659,28.10954],[92.66675,28.09986],[92.66144,28.09508]]},"properties":{"source":"osm"}},{"type":"Feature","geometry":{"type":"LineString","coordinates":[[92.66144,28.09508],[92.65951,28.08902],[92.65721,28.08677],[92.65657,28.08225],[92.65826,28.08008],[92.65689,28.077],[92.66423,28.07243],[92.66436,28.07031],[92.67333,28.06761],[92.68139,28.06925],[92.68564,28.06666],[92.69708,28.07209],[92.70229,28.06872],[92.71478,28.06638],[92.73186,28.05456],[92.73195,28.04994],[92.73757,28.04142],[92.7377,28.03789],[92.7362,28.03369],[92.73156,28.03096],[92.72697,28.02483],[92.72766,28.01975],[92.72259,28.01244],[92.72126,28.00099],[92.72199,27.99452],[92.72452,27.99073],[92.72976,27.98864],[92.73268,27.98576],[92.73148,27.9825]]},"properties":{"source":"osm"}},{"type":"Feature","geometry":{"type":"LineString","coordinates":[[92.73148,27.9825],[92.73049,27.98],[92.72487,27.97765],[92.72328,27.97325],[92.71972,27.97234],[92.7171,27.96954],[92.71268,27.96897],[92.70864,27.96401],[92.7024,27.96246],[92.69796,27.96355],[92.68483,27.94782],[92.67526,27.94899],[92.67187,27.94441],[92.66719,27.94263],[92.66658,27.93357],[92.65612,27.92575],[92.65483,27.9206],[92.65071,27.91483],[92.64698,27.91244],[92.64131,27.91055],[92.63165,27.91256],[92.62638,27.91009],[92.62269,27.91374],[92.61187,27.91495],[92.60809,27.91779],[92.59934,27.91461],[92.59303,27.91074],[92.58852,27.89951],[92.58144,27.89007],[92.58101,27.88085],[92.56891,27.88392],[92.56449,27.87596],[92.56106,27.87387],[92.55355,27.87725],[92.54531,27.87254],[92.54355,27.86894],[92.53133,27.86598],[92.53012,27.85881],[92.52677,27.8563],[92.52604,27.85357],[92.51145,27.84697],[92.50046,27.85213],[92.49754,27.84796],[92.47759,27.8365],[92.47497,27.83365],[92.47652,27.82557],[92.46965,27.8231],[92.47075,27.81629],[92.4618,27.79417],[92.456,27.79292]]},"properties":{"source":"osm"}},{"type":"Feature","geometry":{"type":"LineString","coordinates":[[92.456,27.79292],[92.45051,27.79884],[92.44158,27.79972],[92.43446,27.80484],[92.42836,27.80158],[92.42639,27.80298],[92.4224,27.81236],[92.42261,27.81475],[92.42497,27.81593],[92.42158,27.82204],[92.4221,27.82602],[92.42708,27.83156],[92.42184,27.8357],[92.41837,27.8319],[92.41334,27.83107],[92.40974,27.82845],[92.40987,27.82538],[92.40575,27.82086],[92.39798,27.82166],[92.38493,27.816],[92.37991,27.81228],[92.36996,27.80989],[92.36429,27.80442],[92.35974,27.8042],[92.35489,27.80689],[92.3495,27.80193],[92.33743,27.79653],[92.32468,27.79751],[92.3206,27.79979],[92.32049,27.80981],[92.31168,27.82428],[92.30612,27.8253],[92.30434,27.82868],[92.29777,27.83373],[92.29712,27.83678],[92.30228,27.84538],[92.30301,27.85365],[92.29975,27.85463],[92.29327,27.86825],[92.29395,27.87228],[92.29043,27.873],[92.27336,27.88422],[92.26567,27.88734],[92.25607,27.88012],[92.24439,27.88775],[92.23859,27.88665],[92.23344,27.88108],[92.22688,27.87895],[92.22422,27.87565],[92.2131,27.87322],[92.21177,27.87042],[92.21317,27.86378],[92.1944,27.85654],[92.19259,27.85728],[92.18915,27.84982],[92.18617,27.84721],[92.1772,27.84727]]},"properties":{"source":"osm"}},{"type":"Feature","geometry":{"type":"LineString","coordinates":[[92.1772,27.84727],[92.17411,27.84739],[92.16948,27.83741],[92.16672,27.83621],[92.16465,27.83141],[92.1501,27.83164],[92.14293,27.83502],[92.13984,27.8316],[92.13624,27.8308],[92.13264,27.8271],[92.12813,27.81752],[92.10999,27.80272],[92.10278,27.80207],[92.09682,27.7982],[92.06738,27.78935],[92.06406,27.78844],[92.06253,27.78971]]},"properties":{"source":"osm"}},{"type":"Feature","geometry":{"type":"LineString","coordinates":[[92.06253,27.78971],[92.05728,27.77986],[92.04456,27.78041],[92.03929,27.77597],[92.03418,27.77592],[92.03281,27.77932],[92.02692,27.77747],[92.02182,27.77847],[92.01777,27.77663],[92.01121,27.78164],[92.00507,27.7806],[92.00316,27.78376],[91.99947,27.77969],[91.99541,27.78193],[91.98725,27.77768],[91.97848,27.77908],[91.97887,27.77086],[91.97716,27.76309],[91.97492,27.75622],[91.97089,27.75392],[91.96735,27.7494],[91.96542,27.73898],[91.95299,27.73679],[91.95125,27.73292],[91.94664,27.73133],[91.94467,27.72753],[91.94147,27.72576],[91.93761,27.72696],[91.93456,27.7235],[91.93445,27.72111],[91.9278,27.7204],[91.92754,27.71837],[91.92476,27.71663]]},"properties":{"source":"osm"}},{"type":"Feature","geometry":{"type":"LineString","coordinates":[[91.92476,27.71663],[91.91748,27.7196],[91.91179,27.72567],[91.9031,27.72901],[91.8987,27.72817],[91.89472,27.72335],[91.8727,27.72023],[91.87055,27.72548],[91.87145,27.72871],[91.86634,27.73264],[91.86099,27.73447]]},"properties":{"source":"osm"}},{"type":"Feature","geometry":{"type":"LineString","coordinates":[[91.86099,27.73447],[91.86014,27.74081],[91.85276,27.75748],[91.84644,27.7617]]},"properties":{"source":"osm"}},{"type":"Feature","geometry":{"type":"LineString","coordinates":[[91.84644,27.7617],[91.83952,27.76716],[91.83811,27.77487]]},"properties":{"source":"osm"}},{"type":"Feature","geometry":{"type":"LineString","coordinates":[[91.83811,27.77487],[91.83896,27.7809],[91.82889,27.7881],[91.82967,27.79051]]},"properties":{"source":"osm"}},{"type":"Feature","geometry":{"type":"LineString","coordinates":[[91.56871,27.82647],[91.57692,27.83276],[91.59084,27.83128],[91.59299,27.83378],[91.59652,27.83373],[91.60642,27.83782],[91.61113,27.84184],[91.61293,27.84128],[91.61347,27.83919],[91.62364,27.83741],[91.62417,27.83589],[91.62915,27.83481],[91.63104,27.83228],[91.64246,27.83305],[91.65018,27.83075],[91.65614,27.83099],[91.66778,27.82611],[91.6793,27.81752],[91.68211,27.81752],[91.68938,27.81334],[91.70567,27.7933],[91.71539,27.78786],[91.72453,27.78047],[91.72586,27.77986],[91.73453,27.7931],[91.7386,27.79115],[91.74453,27.79997],[91.75329,27.79661],[91.75725,27.79243],[91.76105,27.79081],[91.77094,27.78966],[91.77328,27.78135],[91.77146,27.77754],[91.77281,27.77466],[91.77895,27.77094],[91.78056,27.77161],[91.78125,27.77603],[91.78436,27.77758],[91.80626,27.77512],[91.80929,27.78062],[91.807,27.78672],[91.80845,27.78784],[91.8146,27.78421],[91.82967,27.79051]]},"properties":{"source":"osm"}},{"type":"Feature","geometry":{"type":"LineString","coordinates":[[91.56871,27.82647],[91.56606,27.82299],[91.56559,27.81868]]},"properties":{"source":"osm"}},{"type":"Feature","geometry":{"type":"LineString","coordinates":[[96.95745,28.34282],[96.96818,28.33414],[96.97687,28.32957],[96.9973,28.32688],[97.00174,28.32363],[97.01565,28.32048],[97.02179,28.32232],[97.02681,28.32999],[97.03918,28.34067],[97.04009,28.34447],[97.04814,28.35033],[97.05169,28.35652],[97.05567,28.35955],[97.06805,28.36316],[97.07801,28.37116],[97.09328,28.36869],[97.09824,28.36518],[97.10289,28.36603],[97.1227,28.36117],[97.12687,28.36163],[97.13771,28.35205],[97.14287,28.35056],[97.14747,28.35141],[97.14974,28.34354],[97.1527,28.34217],[97.15378,28.3376],[97.15772,28.33497],[97.1678,28.32979],[97.1733,28.33389],[97.17853,28.33397],[97.19277,28.31706],[97.19663,28.31567],[97.20132,28.30639],[97.20693,28.30273],[97.21372,28.30513],[97.22142,28.30095],[97.22609,28.30032],[97.23228,28.29539],[97.23801,28.29373],[97.2353,28.28604],[97.23752,28.2835],[97.23765,28.27655],[97.24318,28.27044],[97.24341,28.2648],[97.25384,28.26326],[97.26387,28.26413],[97.26695,28.25925],[97.26936,28.2462],[97.27479,28.2433],[97.28089,28.24534],[97.28163,28.23732],[97.28407,28.23152],[97.29588,28.23353],[97.29969,28.22903],[97.30756,28.22644],[97.31912,28.21974],[97.3225,28.21977],[97.327,28.21481],[97.34306,28.21463],[97.34557,28.21572]]},"properties":{"source":"osm"}},{"type":"Feature","geometry":{"type":"LineString","coordinates":[[96.95745,28.34282],[96.95263,28.34603],[96.94524,28.34834],[96.93947,28.34825],[96.92464,28.35309],[96.92182,28.35803],[96.92169,28.36402],[96.91651,28.36569],[96.91194,28.36935],[96.90919,28.37423],[96.89471,28.38307]]},"properties":{"source":"osm"}},{"type":"Feature","geometry":{"type":"LineString","coordinates":[[96.89471,28.38307],[96.88968,28.38581],[96.88313,28.40014],[96.88435,28.40563],[96.89226,28.413],[96.89288,28.41858],[96.88676,28.42922],[96.87627,28.43702],[96.86222,28.45279],[96.86443,28.45654],[96.86113,28.46246],[96.8622,28.46526],[96.86016,28.47152],[96.86037,28.4829],[96.84984,28.48608],[96.84454,28.49037],[96.82383,28.50068],[96.8208,28.50436],[96.81776,28.50318],[96.80657,28.50569],[96.8009,28.50406],[96.79327,28.5058],[96.78976,28.51057],[96.78184,28.51225]]},"properties":{"source":"osm"}},{"type":"Feature","geometry":{"type":"LineString","coordinates":[[96.78184,28.51225],[96.76354,28.51693],[96.7598,28.51943],[96.75796,28.52469],[96.75205,28.5325],[96.75163,28.54206],[96.75544,28.54443],[96.76235,28.5527],[96.75632,28.5585],[96.75303,28.55966],[96.75012,28.56803],[96.74542,28.57134],[96.72278,28.57929],[96.71749,28.59177],[96.71843,28.60628],[96.71465,28.61],[96.71097,28.61114],[96.70402,28.5982],[96.68702,28.59031],[96.66331,28.60212],[96.6614,28.60763],[96.65098,28.61348],[96.65054,28.61711],[96.64552,28.61948]]},"properties":{"source":"osm"}},{"type":"Feature","geometry":{"type":"LineString","coordinates":[[96.64552,28.61948],[96.64888,28.62279],[96.64799,28.62805],[96.64502,28.63088],[96.64554,28.6357],[96.63837,28.64408],[96.63663,28.65083],[96.64439,28.65507],[96.64199,28.66125]]},"properties":{"source":"osm"}},{"type":"Feature","geometry":{"type":"LineString","coordinates":[[96.64199,28.66125],[96.64691,28.66716],[96.64177,28.67172],[96.64032,28.67918],[96.64388,28.68309],[96.64585,28.68989],[96.64545,28.69213],[96.63918,28.69731],[96.62989,28.70008],[96.62853,28.70334],[96.62927,28.70964],[96.63211,28.71438],[96.63068,28.73469],[96.62566,28.73504],[96.61591,28.74031],[96.60942,28.75236],[96.60356,28.75911],[96.60474,28.76848],[96.60351,28.78065],[96.59269,28.78156],[96.58042,28.77924],[96.57401,28.78323],[96.57234,28.79136],[96.57626,28.79524],[96.57961,28.80764],[96.59017,28.81855],[96.5877,28.82012],[96.578,28.81987],[96.56848,28.82517],[96.55649,28.83663],[96.55164,28.84418],[96.54978,28.85089],[96.54605,28.84841],[96.53936,28.84909],[96.53538,28.8517],[96.52969,28.86077],[96.52379,28.86241],[96.5213,28.86994],[96.52663,28.88075],[96.52015,28.88843],[96.51763,28.90474],[96.51822,28.9099],[96.52403,28.91258],[96.52864,28.91684],[96.5258,28.92252],[96.52581,28.93245],[96.52378,28.93584],[96.51378,28.94515],[96.50411,28.94818],[96.49714,28.9456],[96.4962,28.94312],[96.48812,28.94149],[96.48258,28.94222],[96.46784,28.93505],[96.46257,28.93506],[96.45236,28.93821],[96.44699,28.94286],[96.44707,28.94829],[96.4431,28.95415],[96.44323,28.95634],[96.43868,28.96062],[96.4359,28.97303],[96.43743,28.97655],[96.43645,28.97888],[96.43967,28.98706],[96.4434,28.98959],[96.44436,28.99464],[96.43329,29.01011],[96.42052,29.0165],[96.41478,29.02376],[96.40627,29.02544],[96.40074,29.02992],[96.39,29.0334],[96.37954,29.03251],[96.36409,29.04266],[96.36217,29.05157],[96.36651,29.07153],[96.36566,29.08106],[96.35043,29.08235],[96.34924,29.08749],[96.33944,29.10113],[96.33592,29.10405],[96.33378,29.10391],[96.3323,29.11058],[96.32972,29.11351],[96.3225,29.11676],[96.31551,29.11719]]},"properties":{"source":"osm"}},{"type":"Feature","geometry":{"type":"LineString","coordinates":[[96.30648,29.17821],[96.31302,29.1768],[96.3158,29.17474],[96.31969,29.16665],[96.3166,29.16429],[96.32208,29.15911],[96.32112,29.15408],[96.32491,29.1521],[96.32142,29.1459],[96.3161,29.14544],[96.3113,29.14098],[96.30967,29.13601],[96.31053,29.13061],[96.30703,29.12872],[96.30703,29.1256],[96.31551,29.11719]]},"properties":{"source":"osm"}},{"type":"Feature","geometry":{"type":"LineString","coordinates":[[96.30648,29.17821],[96.30536,29.18422],[96.29642,29.19725],[96.28436,29.20269],[96.28689,29.20971],[96.27368,29.21045],[96.2605,29.2176],[96.26512,29.22239],[96.26001,29.23307],[96.26345,29.23737],[96.26313,29.24184],[96.26532,29.24538],[96.25343,29.24926],[96.24604,29.24895],[96.2251,29.25678],[96.22039,29.26314],[96.21566,29.26541],[96.207,29.26433],[96.19622,29.26568],[96.18524,29.27307],[96.1835,29.27811],[96.17408,29.28621],[96.17116,29.29416],[96.16952,29.29526],[96.15616,29.29482],[96.15271,29.29652],[96.14908,29.31188],[96.14297,29.31485],[96.14367,29.32351],[96.14516,29.3241],[96.14692,29.3295],[96.14537,29.33346],[96.1416,29.33508],[96.14256,29.33955],[96.13632,29.34558],[96.09359,29.36474],[96.08582,29.36474],[96.07079,29.37252],[96.0629,29.37365],[96.05696,29.36813],[96.05265,29.36695],[96.04642,29.3677]]},"properties":{"source":"osm"}},{"type":"Feature","geometry":{"type":"LineString","coordinates":[[96.04642,29.3677],[96.03275,29.36499]]},"properties":{"source":"osm"}},{"type":"Feature","geometry":{"type":"LineString","coordinates":[[96.03275,29.36499],[96.02041,29.36268],[96.01933,29.36075],[96.01657,29.363],[96.01261,29.36264],[96.01085,29.36486],[96.00818,29.365],[96.00559,29.36153],[95.99555,29.36514],[95.98082,29.36129],[95.97279,29.37339],[95.9669,29.37456],[95.95686,29.366],[95.9466,29.36566],[95.94228,29.3629],[95.94007,29.34912],[95.93293,29.34778],[95.92864,29.34375],[95.9215,29.34189],[95.91852,29.33222],[95.91134,29.33684],[95.90084,29.33162],[95.89409,29.33158],[95.88915,29.32656],[95.88605,29.32613],[95.87749,29.31457],[95.86738,29.3179],[95.86202,29.31516],[95.84989,29.31695],[95.84108,29.32123],[95.83954,29.32302],[95.83669,29.33703],[95.84238,29.34002],[95.83888,29.35309],[95.81233,29.34753],[95.77684,29.32296],[95.75741,29.32261],[95.7407,29.30258],[95.73715,29.29796],[95.7484,29.28837],[95.74935,29.27972],[95.75243,29.27616],[95.74272,29.26183],[95.73596,29.25543]]},"properties":{"source":"osm"}},{"type":"Feature","geometry":{"type":"LineString","coordinates":[[95.73596,29.25543],[95.73608,29.25152],[95.73028,29.23967],[95.73051,29.23517],[95.73762,29.22735],[95.74319,29.22569],[95.7407,29.22095],[95.73525,29.21751],[95.72791,29.21751],[95.72222,29.21574],[95.71606,29.21183],[95.70883,29.20401],[95.70338,29.20543],[95.70575,29.21325],[95.69828,29.22474],[95.66416,29.22356],[95.64805,29.2104],[95.64082,29.21337],[95.63762,29.21645],[95.63608,29.22332],[95.62494,29.22984],[95.60563,29.236],[95.59686,29.22604],[95.59674,29.21431],[95.59461,29.20673],[95.60408,29.19386],[95.60186,29.19105],[95.59568,29.18801],[95.58777,29.18801],[95.58485,29.18367],[95.57383,29.17961],[95.55968,29.18826],[95.54888,29.19701],[95.53938,29.19451],[95.5331,29.19476],[95.52909,29.18919],[95.50835,29.19401],[95.505,29.19358],[95.50157,29.18731],[95.50702,29.17808],[95.50663,29.17215],[95.51376,29.1666],[95.51552,29.16254],[95.5138,29.15688],[95.51636,29.15516],[95.51625,29.15112],[95.51413,29.14789],[95.51676,29.14415],[95.51023,29.13249],[95.51126,29.12758]]},"properties":{"source":"osm"}},{"type":"Feature","geometry":{"type":"LineString","coordinates":[[95.51126,29.12758],[95.50542,29.12627],[95.49919,29.13249],[95.47985,29.14395],[95.47357,29.14257],[95.472,29.13902],[95.46755,29.1366],[95.45965,29.13725],[95.45247,29.14859],[95.45517,29.15423],[95.4502,29.1611],[95.45541,29.16735],[95.45294,29.171],[95.45468,29.17682],[95.44792,29.1803],[95.44057,29.18817],[95.43315,29.1902],[95.4263,29.18457],[95.42049,29.18474],[95.41902,29.18066],[95.42056,29.17036],[95.41973,29.16569],[95.41588,29.16451],[95.41575,29.15003],[95.4102,29.14851],[95.41025,29.13777],[95.41345,29.1328],[95.41334,29.1267]]},"properties":{"source":"osm"}},{"type":"Feature","geometry":{"type":"LineString","coordinates":[[95.41334,29.1267],[95.40314,29.12403],[95.39726,29.12674],[95.39156,29.1356],[95.38036,29.1386],[95.37221,29.136],[95.34661,29.13511],[95.33652,29.13988],[95.33286,29.13966],[95.32964,29.13686],[95.31533,29.13929],[95.31273,29.14163],[95.30537,29.14057],[95.29911,29.13722],[95.29769,29.13161],[95.28904,29.12273],[95.28011,29.12078],[95.27828,29.11793],[95.2826,29.1103],[95.2728,29.1066],[95.27007,29.10356],[95.27268,29.09774],[95.27251,29.08282],[95.27076,29.08063],[95.27226,29.07442],[95.26508,29.07141]]},"properties":{"source":"osm"}},{"type":"Feature","geometry":{"type":"LineString","coordinates":[[95.26508,29.07141],[95.25944,29.07279],[95.25731,29.07928],[95.25147,29.08414],[95.24257,29.0836],[95.23907,29.08494],[95.23478,29.09424],[95.23556,29.09824],[95.23101,29.10395],[95.22147,29.10531],[95.21452,29.10822],[95.20827,29.10869],[95.20191,29.10534],[95.19841,29.1052],[95.19283,29.10163],[95.18679,29.10175],[95.18056,29.10582],[95.17605,29.10652],[95.17199,29.10149],[95.1665,29.09845],[95.16016,29.10049],[95.15012,29.09062],[95.14398,29.09158],[95.13457,29.08931],[95.13158,29.09161],[95.12991,29.09907],[95.12388,29.10092],[95.10389,29.09741]]},"properties":{"source":"osm"}},{"type":"Feature","geometry":{"type":"LineString","coordinates":[[95.10389,29.09741],[95.09655,29.1061],[95.09579,29.11044],[95.09946,29.135],[95.09786,29.14303]]},"properties":{"source":"osm"}},{"type":"Feature","geometry":{"type":"LineString","coordinates":[[95.09786,29.14303],[95.09374,29.14344],[95.08846,29.14188],[95.07903,29.14652],[95.0749,29.14491],[95.06803,29.14565],[95.06404,29.14234],[95.05805,29.14138],[95.05087,29.15252],[95.04273,29.15058]]},"properties":{"source":"osm"}},{"type":"Feature","geometry":{"type":"LineString","coordinates":[[95.04273,29.15058],[95.0332,29.15362],[95.03089,29.15676],[95.01041,29.16414],[95.00644,29.1665],[95.00029,29.1735],[94.99252,29.17526],[94.99037,29.17407],[94.989,29.1716],[94.99483,29.16956],[95.01382,29.14829],[95.01601,29.13543],[95.02272,29.12855],[95.01662,29.12692],[95.01016,29.1287],[94.99521,29.13682],[94.99078,29.14838],[94.98511,29.14969],[94.96116,29.16103],[94.95391,29.15895],[94.9385,29.16237],[94.92684,29.15745],[94.91642,29.15774],[94.9088,29.16175],[94.90698,29.16777],[94.89951,29.17372],[94.88419,29.17909],[94.84754,29.18258],[94.83803,29.17706],[94.83259,29.17815],[94.82787,29.17307],[94.82185,29.1722],[94.80973,29.16494],[94.80407,29.16661]]},"properties":{"source":"osm"}},{"type":"Feature","geometry":{"type":"LineString","coordinates":[[94.80407,29.16661],[94.79739,29.18606],[94.80051,29.20573],[94.8037,29.20842],[94.79434,29.21771],[94.79093,29.21865],[94.77627,29.21691],[94.77075,29.21829],[94.75166,29.22968],[94.74484,29.24325],[94.7492,29.2508],[94.74775,29.25617],[94.74571,29.26176],[94.7357,29.27591],[94.73493,29.28697]]},"properties":{"source":"osm"}},{"type":"Feature","geometry":{"type":"LineString","coordinates":[[94.73493,29.28697],[94.72336,29.29123],[94.71552,29.29152],[94.71001,29.30219],[94.6936,29.31793],[94.68753,29.31508],[94.68709,29.31305],[94.68241,29.31346],[94.66758,29.30345],[94.65906,29.30647],[94.65303,29.30349],[94.65138,29.29957],[94.64692,29.29658],[94.62857,29.2955]]},"properties":{"source":"osm"}},{"type":"Feature","geometry":{"type":"LineString","coordinates":[[94.62857,29.2955],[94.62335,29.29268],[94.61907,29.2839],[94.60528,29.27649],[94.59069,29.27214],[94.58329,29.26212],[94.57748,29.25806],[94.57153,29.25624],[94.57175,29.24717],[94.56841,29.24122],[94.55999,29.23679],[94.55607,29.2283],[94.5528,29.22852],[94.54097,29.21974],[94.52849,29.2225],[94.51622,29.22714],[94.51064,29.2312],[94.50592,29.227],[94.5012,29.21531],[94.49198,29.20776],[94.45686,29.21313]]},"properties":{"source":"osm"}},{"type":"Feature","geometry":{"type":"LineString","coordinates":[[94.45686,29.21313],[94.45199,29.20341],[94.45475,29.19438],[94.44807,29.18338],[94.44532,29.18207],[94.43944,29.18563],[94.42963,29.18631],[94.41737,29.17895],[94.4046,29.18272],[94.40105,29.18229],[94.39745,29.18473],[94.39321,29.18461],[94.39086,29.18331],[94.3911,29.18045],[94.38841,29.17844],[94.38698,29.16786],[94.38788,29.16125],[94.37891,29.15413],[94.37281,29.15471],[94.36618,29.15193],[94.35634,29.15255],[94.35059,29.15119],[94.3345,29.15463],[94.32692,29.15185],[94.31839,29.15562],[94.31184,29.1524],[94.295,29.15129]]},"properties":{"source":"osm"}},{"type":"Feature","geometry":{"type":"LineString","coordinates":[[94.295,29.15129],[94.29515,29.14363],[94.29309,29.13795],[94.29556,29.13272],[94.29283,29.12395],[94.27599,29.11273],[94.27454,29.09967],[94.27686,29.09386],[94.2846,29.08641],[94.29273,29.08312],[94.31238,29.07906],[94.31557,29.07586],[94.31335,29.06619],[94.31993,29.06096],[94.32409,29.05496],[94.32757,29.04054],[94.34218,29.03571],[94.36038,29.03425],[94.36638,29.02593]]},"properties":{"source":"osm"}},{"type":"Feature","geometry":{"type":"LineString","coordinates":[[94.36638,29.02593],[94.34189,29.00193],[94.32215,28.99342],[94.30947,28.994],[94.30299,28.98461],[94.28112,28.97029],[94.27396,28.96787],[94.27473,28.95248],[94.26728,28.94561],[94.26651,28.93942],[94.26051,28.93168],[94.2577,28.93023],[94.25112,28.92887],[94.22893,28.92855],[94.21493,28.93357],[94.20663,28.93301],[94.17976,28.93692],[94.17293,28.93177],[94.16645,28.92384],[94.16703,28.9191],[94.17138,28.91348],[94.17477,28.91184],[94.1619,28.90449],[94.14419,28.8979],[94.13587,28.89045],[94.13171,28.88891],[94.11593,28.88929],[94.099,28.88397],[94.08526,28.88165],[94.07868,28.88271],[94.07219,28.87787],[94.05953,28.87381]]},"properties":{"source":"osm"}},{"type":"Feature","geometry":{"type":"LineString","coordinates":[[94.05953,28.87381],[94.05768,28.87023],[94.05846,28.85834],[94.04863,28.85903],[94.03687,28.85736],[94.03011,28.85232],[94.02149,28.83936],[94.02233,28.83655],[94.02104,28.83054],[94.01858,28.82833],[94.0182,28.82291],[94.02014,28.81418],[94.01975,28.79349],[93.99771,28.79064]]},"properties":{"source":"osm"}},{"type":"Feature","geometry":{"type":"LineString","coordinates":[[93.99771,28.79064],[93.98681,28.79527],[93.98993,28.80188],[93.9855,28.81202],[93.97708,28.81824],[93.97009,28.81709],[93.95636,28.80414],[93.94762,28.80254],[93.94572,28.79287],[93.94037,28.78781],[93.9271,28.78256],[93.92187,28.77569],[93.91581,28.77335],[93.91323,28.76922],[93.9222,28.74269],[93.91959,28.74111]]},"properties":{"source":"osm"}},{"type":"Feature","geometry":{"type":"LineString","coordinates":[[93.91959,28.74111],[93.91073,28.7391],[93.89996,28.75452],[93.89719,28.75605],[93.89435,28.75331],[93.88832,28.75247],[93.86667,28.74449],[93.86146,28.7383],[93.85758,28.74115],[93.84947,28.74261],[93.84423,28.74622],[93.83352,28.74036],[93.82836,28.74213],[93.82329,28.7395],[93.81208,28.73988],[93.81011,28.73714],[93.80007,28.73323],[93.79134,28.73602],[93.78879,28.73298],[93.78895,28.72144],[93.78514,28.71178],[93.75709,28.69934],[93.7406,28.68557],[93.72925,28.68055],[93.72736,28.67236],[93.72382,28.66772],[93.71471,28.66474],[93.70646,28.66538],[93.69951,28.67131],[93.68996,28.67545],[93.6806,28.67071],[93.67088,28.66847],[93.66255,28.66865],[93.63937,28.65467],[93.63557,28.65647],[93.63417,28.65888],[93.63308,28.66614],[93.62988,28.67062],[93.62999,28.67411],[93.6279,28.67555],[93.62415,28.68676],[93.61263,28.68313],[93.60382,28.68383],[93.58952,28.67855],[93.58133,28.67817],[93.57243,28.67557],[93.56038,28.67592],[93.55152,28.67457]]},"properties":{"source":"osm"}},{"type":"Feature","geometry":{"type":"LineString","coordinates":[[93.55152,28.67457],[93.54201,28.67346],[93.53663,28.67053],[93.5306,28.67319],[93.5261,28.67233],[93.52194,28.67338]]},"properties":{"source":"osm"}},{"type":"Feature","geometry":{"type":"LineString","coordinates":[[93.52194,28.67338],[93.51839,28.6702],[93.51082,28.66744]]},"properties":{"source":"osm"}},{"type":"Feature","geometry":{"type":"LineString","coordinates":[[93.51082,28.66744],[93.50705,28.66069],[93.50672,28.64689],[93.50438,28.64328],[93.50535,28.64011],[93.50331,28.63541],[93.50347,28.62964]]},"properties":{"source":"osm"}},{"type":"Feature","geometry":{"type":"LineString","coordinates":[[93.50347,28.62964],[93.49894,28.62659],[93.49011,28.62707],[93.47913,28.62526],[93.46742,28.61851],[93.46453,28.62019],[93.45592,28.61461],[93.45416,28.6053],[93.44434,28.58932],[93.43223,28.58282],[93.42178,28.58604],[93.41748,28.58514],[93.41542,28.57739],[93.39924,28.56555],[93.39834,28.55961],[93.39449,28.55382]]},"properties":{"source":"osm"}},{"type":"Feature","geometry":{"type":"LineString","coordinates":[[93.39449,28.55382],[93.39033,28.54291],[93.39266,28.53417],[93.38964,28.53112],[93.37696,28.53154],[93.36345,28.53567],[93.35202,28.52761],[93.33785,28.52496],[93.32927,28.52157],[93.31557,28.5281],[93.30603,28.52779],[93.29889,28.54179],[93.28937,28.54146],[93.27929,28.54966],[93.27918,28.55408],[93.27517,28.55857]]},"properties":{"source":"osm"}}]}
